IRIDIUM 63              
1 25286U 98021B   25278.37170417  .00000931  00000+0  30975-3 0  9996
2 25286  86.4007  35.8798 0001924  90.8265 269.3153 14.36647241439661
IRIDIUM 69              
1 25319U 98026A   25278.46243779  .00001263  00000+0  38650-3 0  9997
2 25319  86.3975  48.7838 0003657  53.4220 306.7316 14.41091819438947
IRIDIUM 71              
1 25320U 98026B   25278.38587660  .00000656  00000+0  19702-3 0  9992
2 25320  86.3984  43.4933 0004235  87.1774 272.9911 14.41251101439463
IRIDIUM 73              
1 25344U 98032C   25278.48070554  .00001180  00000+0  28817-3 0  9995
2 25344  86.4472 359.9820 0002094  74.7423 285.4014 14.51863106446563
IRIDIUM 82              
1 25467U 98051A   25278.41353035  .00054731  00000+0  12985-2 0  9991
2 25467  86.3629  55.2782 0073600 236.5156 122.9049 15.38651841440864
